{
  "type": "FeatureCollection",
  "features": [
    {
      "type": "Feature",
      "properties": {
        "norad_id": 41599,
        "name": "CARTOSAT-2C",
        "group": "resource",
        "lat": 81.09801703151155,
        "lon": -2.335967321622706,
        "alt_km": 496.6143587937395,
        "timestamp": "2025-12-23T11:34:47.839308+00:00",
        "meta_object_name": "CARTOSAT-2C",
        "meta_object_id": "2016-040A",
        "meta_epoch": "2025-12-23T04:53:02.842368",
        "meta_mean_motion": 15.19205997,
        "meta_eccentricity": 0.0010794,
        "meta_inclination": 97.4749,
        "meta_ra_of_asc_node": 54.3452,
        "meta_arg_of_pericenter": 30.4503,
        "meta_mean_anomaly": 329.7356,
        "meta_ephemeris_type": 0,
        "meta_classification_type": "U",
        "meta_norad_cat_id": 41599,
        "meta_element_set_no": 999,
        "meta_rev_at_epoch": 52699,
        "meta_bstar": 0.00022798,
        "meta_mean_motion_dot": 4.737e-05,
        "meta_mean_motion_ddot": 0,
        "tle_line1": "1 41599U 16040A   25357.20350512  .00004737  00000+0  22798-3 0  9990",
        "tle_line2": "2 41599  97.4749  54.3452 0010794  30.4503 329.7356 15.19205997526993"
      },
      "geometry": {
        "type": "Point",
        "coordinates": [
          -2.335967321622706,
          81.09801703151155
        ]
      }
    },
    {
      "type": "Feature",
      "properties": {
        "norad_id": 41601,
        "name": "SKYSAT-C1",
        "group": "resource",
        "lat": -59.13875309344774,
        "lon": 45.72169552246834,
        "alt_km": 474.04488462282734,
        "timestamp": "2025-12-23T11:34:47.839317+00:00",
        "meta_object_name": "SKYSAT-C1",
        "meta_object_id": "2016-040C",
        "meta_epoch": "2025-12-23T02:26:23.296992",
        "meta_mean_motion": 15.32767948,
        "meta_eccentricity": 0.000116,
        "meta_inclination": 96.9802,
        "meta_ra_of_asc_node": 33.531,
        "meta_arg_of_pericenter": 334.4821,
        "meta_mean_anomaly": 25.6365,
        "meta_ephemeris_type": 0,
        "meta_classification_type": "U",
        "meta_norad_cat_id": 41601,
        "meta_element_set_no": 999,
        "meta_rev_at_epoch": 53086,
        "meta_bstar": 0.00031966,
        "meta_mean_motion_dot": 0.00010047,
        "meta_mean_motion_ddot": 0,
        "tle_line1": "1 41601U 16040C   25357.10165853  .00010047  00000+0  31966-3 0  9993",
        "tle_line2": "2 41601  96.9802  33.5310 0001160 334.4821  25.6365 15.32767948530867"
      },
      "geometry": {
        "type": "Point",
        "coordinates": [
          45.72169552246834,
          -59.13875309344774
        ]
      }
    },
    {
      "type": "Feature",
      "properties": {
        "norad_id": 41603,
        "name": "LAPAN-A3",
        "group": "resource",
        "lat": 41.596869220714495,
        "lon": -11.743815752553871,
        "alt_km": 469.9355325291699,
        "timestamp": "2025-12-23T11:34:47.839327+00:00",
        "meta_object_name": "LAPAN-A3",
        "meta_object_id": "2016-040E",
        "meta_epoch": "2025-12-23T05:07:31.138176",
        "meta_mean_motion": 15.31633139,
        "meta_eccentricity": 0.0008741,
        "meta_inclination": 97.143,
        "meta_ra_of_asc_node": 354.3889,
        "meta_arg_of_pericenter": 290.7067,
        "meta_mean_anomaly": 69.3238,
        "meta_ephemeris_type": 0,
        "meta_classification_type": "U",
        "meta_norad_cat_id": 41603,
        "meta_element_set_no": 999,
        "meta_rev_at_epoch": 52786,
        "meta_bstar": 0.00015581,
        "meta_mean_motion_dot": 4.689e-05,
        "meta_mean_motion_ddot": 0,
        "tle_line1": "1 41603U 16040E   25357.21355484  .00004689  00000+0  15581-3 0  9998",
        "tle_line2": "2 41603  97.1430 354.3889 0008741 290.7067  69.3238 15.31633139527865"
      },
      "geometry": {
        "type": "Point",
        "coordinates": [
          -11.743815752553871,
          41.596869220714495
        ]
      }
    },
    {
      "type": "Feature",
      "properties": {
        "norad_id": 41604,
        "name": "BIROS",
        "group": "resource",
        "lat": 28.559012884103225,
        "lon": 25.506504617752285,
        "alt_km": 290.6640044023288,
        "timestamp": "2025-12-23T11:34:47.839336+00:00",
        "meta_object_name": "BIROS",
        "meta_object_id": "2016-040F",
        "meta_epoch": "2025-12-23T00:54:41.222304",
        "meta_mean_motion": 15.93712142,
        "meta_eccentricity": 0.0003792,
        "meta_inclination": 97.067,
        "meta_ra_of_asc_node": 28.9133,
        "meta_arg_of_pericenter": 129.7524,
        "meta_mean_anomaly": 230.4087,
        "meta_ephemeris_type": 0,
        "meta_classification_type": "U",
        "meta_norad_cat_id": 41604,
        "meta_element_set_no": 999,
        "meta_rev_at_epoch": 53036,
        "meta_bstar": 0.0006125,
        "meta_mean_motion_dot": 0.00219845,
        "meta_mean_motion_ddot": 2.0271e-05,
        "tle_line1": "1 41604U 16040F   25357.03797711  .00219845  20271-4  61250-3 0  9995",
        "tle_line2": "2 41604  97.0670  28.9133 0003792 129.7524 230.4087 15.93712142530369"
      },
      "geometry": {
        "type": "Point",
        "coordinates": [
          25.506504617752285,
          28.559012884103225
        ]
      }
    },
    {
      "type": "Feature",
      "properties": {
        "norad_id": 41727,
        "name": "GAOFEN-3",
        "group": "resource",
        "lat": -31.03151767702131,
        "lon": 8.006484203188029,
        "alt_km": 757.1225615903759,
        "timestamp": "2025-12-23T11:34:47.839345+00:00",
        "meta_object_name": "GAOFEN-3",
        "meta_object_id": "2016-049A",
        "meta_epoch": "2025-12-23T05:03:53.913024",
        "meta_mean_motion": 14.42216252,
        "meta_eccentricity": 0.0001166,
        "meta_inclination": 98.4031,
        "meta_ra_of_asc_node": 2.6372,
        "meta_arg_of_pericenter": 55.7169,
        "meta_mean_anomaly": 304.4131,
        "meta_ephemeris_type": 0,
        "meta_classification_type": "U",
        "meta_norad_cat_id": 41727,
        "meta_element_set_no": 999,
        "meta_rev_at_epoch": 49328,
        "meta_bstar": 5.5599e-05,
        "meta_mean_motion_dot": 1.4e-06,
        "meta_mean_motion_ddot": 0,
        "tle_line1": "1 41727U 16049A   25357.21104066  .00000140  00000+0  55599-4 0  9994",
        "tle_line2": "2 41727  98.4031   2.6372 0001166  55.7169 304.4131 14.42216252493286"
      },
      "geometry": {
        "type": "Point",
        "coordinates": [
          8.006484203188029,
          -31.03151767702131
        ]
      }
    },
    {
      "type": "Feature",
      "properties": {
        "norad_id": 41771,
        "name": "SKYSAT-C4",
        "group": "resource",
        "lat": -69.41486519622609,
        "lon": -176.7646338194029,
        "alt_km": 446.87787184685294,
        "timestamp": "2025-12-23T11:34:47.839354+00:00",
        "meta_object_name": "SKYSAT-C4",
        "meta_object_id": "2016-058B",
        "meta_epoch": "2025-12-23T01:09:20.907360",
        "meta_mean_motion": 15.42530983,
        "meta_eccentricity": 0.0002387,
        "meta_inclination": 96.9361,
        "meta_ra_of_asc_node": 21.7353,
        "meta_arg_of_pericenter": 125.8934,
        "meta_mean_anomaly": 234.2537,
        "meta_ephemeris_type": 0,
        "meta_classification_type": "U",
        "meta_norad_cat_id": 41771,
        "meta_element_set_no": 999,
        "meta_rev_at_epoch": 51826,
        "meta_bstar": 0.00036205,
        "meta_mean_motion_dot": 0.00015641,
        "meta_mean_motion_ddot": 0,
        "tle_line1": "1 41771U 16058B   25357.04815865  .00015641  00000+0  36205-3 0  9994",
        "tle_line2": "2 41771  96.9361  21.7353 0002387 125.8934 234.2537 15.42530983518267"
      },
      "geometry": {
        "type": "Point",
        "coordinates": [
          -176.7646338194029,
          -69.41486519622609
        ]
      }
    },
    {
      "type": "Feature",
      "properties": {
        "norad_id": 41772,
        "name": "SKYSAT-C5",
        "group": "resource",
        "lat": -24.02700774612529,
        "lon": -142.388385657733,
        "alt_km": 467.20407142816475,
        "timestamp": "2025-12-23T11:34:47.839363+00:00",
        "meta_object_name": "SKYSAT-C5",
        "meta_object_id": "2016-058C",
        "meta_epoch": "2025-12-22T20:36:11.255904",
        "meta_mean_motion": 15.3404884,
        "meta_eccentricity": 0.0003865,
        "meta_inclination": 97.0737,
        "meta_ra_of_asc_node": 40.1871,
        "meta_arg_of_pericenter": 242.4795,
        "meta_mean_anomaly": 117.6056,
        "meta_ephemeris_type": 0,
        "meta_classification_type": "U",
        "meta_norad_cat_id": 41772,
        "meta_element_set_no": 999,
        "meta_rev_at_epoch": 51671,
        "meta_bstar": 0.00031468,
        "meta_mean_motion_dot": 0.00010298,
        "meta_mean_motion_ddot": 0,
        "tle_line1": "1 41772U 16058C   25356.85846361  .00010298  00000+0  31468-3 0  9997",
        "tle_line2": "2 41772  97.0737  40.1871 0003865 242.4795 117.6056 15.34048840516715"
      },
      "geometry": {
        "type": "Point",
        "coordinates": [
          -142.388385657733,
          -24.02700774612529
        ]
      }
    }
  ]
}